ATLAS CENTAUR 2         
1 00694U 63047A   26176.83135265  .00000885  00000+0  94154-4 0  9991
2 00694  30.3576 311.0555 0545938 313.7298  41.9317 14.12532857146927
THOR AGENA D R/B        
1 00733U 64002A   26177.29691858  .00000177  00000+0  80602-4 0  9990
2 00733  99.1152 196.5203 0031924 303.4325  56.3806 14.34068890253862
SL-3 R/B                
1 00877U 64053B   26176.95224824  .00000118  00000+0  47140-4 0  9997
2 00877  65.0776  13.8121 0080811 258.3389 100.8634 14.61430297282615
SL-8 R/B                
1 02802U 67045B   26177.28941948  .00000218  00000+0  67921-4 0  9991
2 02802  74.0102 145.2583 0063151 127.2032 233.4914 14.45685963104719
SL-8 R/B                
1 03230U 68040B   26177.23037196  .00002959  00000+0  21651-3 0  9992
2 03230  74.0309  91.7962 0025812 243.4585 116.3958 15.03856747106327
OAO 2                   
1 03597U 68110A   26177.22959200  .00000191  00000+0  56578-4 0  9997
2 03597  34.9949  19.1896 0005717 340.3456  19.7014 14.47355377 34839
ISIS 1                  
1 03669U 69009A   26177.21968801  .00000056  00000+0  39062-4 0  9990
2 03669  88.4432 143.4072 1706550 229.9721 113.8924 11.30434836360798
SERT 2                  
1 04327U 70009A   26176.78993160 -.00000018  00000+0  32147-4 0  9997
2 04327  99.2841 114.0414 0003931 245.7443 142.8671 13.58739826794574
SL-3 R/B                
1 05118U 71028B   26177.29616795  .00053776  00000+0  43256-3 0  9991
2 05118  81.2331 276.9366 0014224 247.6941 112.2810 15.70592279  5670
ASTEX 1                 
1 05560U 71089A   26177.31421814  .00000418  00000+0  10594-3 0  9992
2 05560  92.6997 186.7951 0017957  79.4933 280.8295 14.50857908878050
SL-8 R/B                
1 05730U 71119B   26176.91268413  .00004191  00000+0  21573-3 0  9995
2 05730  73.8879 333.1047 0543617 277.3183  76.6523 14.39558266671054
OAO 3 (COPERNICUS)      
1 06153U 72065A   26177.00853367  .00000269  00000+0  59380-4 0  9995
2 06153  35.0068  40.1409 0007019 321.4082 199.5516 14.60064812862031
ATLAS CENTAUR R/B       
1 06155U 72065B   26177.26262431  .00000964  00000+0  13359-3 0  9998
2 06155  35.0029  29.3365 0033816 205.6754 154.2267 14.77936974857336
SL-8 R/B                
1 08459U 75112B   26177.29185413  .00000257  00000+0  93085-4 0  9990
2 08459  74.0590 179.1239 0016759 244.9474 114.9941 14.38251070647486
SL-3 R/B                
1 10114U 77057B   26177.26708291  .00011320  00000+0  21789-3 0  9997
2 10114  97.5841 354.2487 0005671 243.4538 116.6131 15.48058204685111
SEASAT 1                
1 10967U 78064A   26177.30059455  .00000220  00000+0  99882-4 0  9995
2 10967 108.0178 353.4197 0001548 240.8334 119.2657 14.46249137522218
SL-14 R/B               
1 11267U 79011B   26177.22932848  .00000504  00000+0  47074-4 0  9990
2 11267  82.5238 353.5718 0017292  57.9916 302.2981 14.92021994544961
SL-8 R/B                
1 11574U 79089B   26177.29069090  .00000195  00000+0  66762-4 0  9994
2 11574  74.0685 250.0056 0015261  30.4403 329.7637 14.42407829451768
SL-14 R/B               
1 11672U 80005B   26177.31386459  .00000459  00000+0  43751-4 0  9993
2 11672  82.5133 204.1828 0016322 155.8963 204.3024 14.91035323492671
SL-8 R/B                
1 12139U 81003B   26177.27118606  .00017582  00000+0  42522-3 0  9992
2 12139  82.9362 189.3301 0250573 159.4161 201.7394 15.14496098331091
SL-3 R/B                
1 12465U 81046B   26177.26078015  .00012207  00000+0  26220-3 0  9995
2 12465  81.2292 159.1370 0017542   6.9803 353.1681 15.44380762455174
SL-3 R/B                
1 12904U 81103B   26177.25614986  .00004171  00000+0  17945-3 0  9994
2 12904  81.1589  85.9788 0011459 282.2601  77.7348 15.22354078989746
SL-3 R/B                
1 13068U 82013B   26177.15910569  .00003967  00000+0  16732-3 0  9997
2 13068  81.1738  33.5263 0022063 170.3543 189.8118 15.22838700420857
SL-3 R/B                
1 13154U 82039B   26177.24229519  .00003604  00000+0  21495-3 0  9999
2 13154  81.1473  90.6238 0027839 325.2369  34.7036 15.10593257398020
SL-3 R/B                
1 13403U 82079B   26177.23176230  .00005407  00000+0  20842-3 0  9998
2 13403  81.1464  64.7890 0024411 155.1750 205.0665 15.25858254394248
SL-14 R/B               
1 13553U 82092B   26177.15465692  .00000364  00000+0  38090-4 0  9995
2 13553  82.5676  39.9118 0018988 303.9448 206.2058 14.86753339345047
SL-3 R/B                
1 13819U 83010B   26177.23003925  .00014749  00000+0  26636-3 0  9991
2 13819  81.1010 228.8261 0014933  31.7916 328.4229 15.49460537374739
SL-3 R/B                
1 14208U 83075B   26177.29240463  .00010407  00000+0  25569-3 0  9992
2 14208  97.6101 186.1691 0020292 194.9660 165.0988 15.40646232346860
COSMOS 1536             
1 14699U 84013A   26177.21680819  .00006262  00000+0  24815-3 0  9991
2 14699  82.5444 359.8503 0012590 259.4905 100.4914 15.25140606289156
SL-14 R/B               
1 14820U 84027B   26176.96830173  .00000423  00000+0  45466-4 0  9992
2 14820  82.5418 143.4825 0017350 339.9350  20.1182 14.86065874263712
